start=new Date('2022-05-01T00:00:00.000Z').valueOf();
sats=[{"COUNTRY_CODE":"US","OBJECT_TYPE":"PAYLOAD","MEAN_ELEMENT_THEORY":"SGP4","MEAN_ANOMALY":"312.8274","ARG_OF_PERICENTER":"47.2878","CLASSIFICATION_TYPE":"U","REV_AT_EPOCH":"9426","EPOCH":"2022-04-30T16:40:27.537024","ECCENTRICITY":"0.00019420","OBJECT_NAME":"STARLINK-1614","SITE":"AFETR","REF_FRAME":"TEME","LAUNCH_DATE":"2020-08-18","FILE":"3423346","MEAN_MOTION_DDOT":"0.0000000000000","CENTER_NAME":"EARTH","EPHEMERIS_TYPE":"0","INCLINATION":"53.0530","RCS_SIZE":"LARGE","BSTAR":"0.00005287400000","TLE_LINE2":"2 46124  53.0530 121.8457 0001942  47.2878 312.8274 15.06382387 94266","PERIAPSIS":"545.923","MEAN_MOTION":"15.06382387","DECAY_DATE":null,"TIME_SYSTEM":"UTC","SEMIMAJOR_AXIS":"6925.403","MEAN_MOTION_DOT":"0.00000506","NORAD_CAT_ID":"46124","APOAPSIS":"548.612","OBJECT_ID":"2020-057H","TLE_LINE1":"1 46124U 20057H   22120.69476316  .00000506  00000-0  52874-4 0  9991","PERIOD":"95.593","ELEMENT_SET_NO":"999","RA_OF_ASC_NODE":"121.8457","GP_ID":"202388827"},{"TLE_LINE2":"2 46125  53.0551 161.3263 0001730  47.0300 313.0834 15.06391418 94975","BSTAR":"-0.00009279000000","RCS_SIZE":"LARGE","SEMIMAJOR_AXIS":"6925.375","MEAN_MOTION_DOT":"-0.00001663","TIME_SYSTEM":"UTC","DECAY_DATE":null,"MEAN_MOTION":"15.06391418","PERIAPSIS":"546.042","OBJECT_ID":"2020-057J","APOAPSIS":"548.438","NORAD_CAT_ID":"46125","GP_ID":"202388577","RA_OF_ASC_NODE":"161.3263","ELEMENT_SET_NO":"999","PERIOD":"95.593","TLE_LINE1":"1 46125U 20057J   22120.80902465 -.00001663  00000-0 -92790-4 0  9992","CLASSIFICATION_TYPE":"U","ARG_OF_PERICENTER":"47.0300","OBJECT_TYPE":"PAYLOAD","MEAN_ELEMENT_THEORY":"SGP4","MEAN_ANOMALY":"313.0834","COUNTRY_CODE":"US","EPOCH":"2022-04-30T19:24:59.729760","REV_AT_EPOCH":"9497","REF_FRAME":"TEME","SITE":"AFETR","OBJECT_NAME":"STARLINK-1618","ECCENTRICITY":"0.00017300","INCLINATION":"53.0551","EPHEMERIS_TYPE":"0","CENTER_NAME":"EARTH","MEAN_MOTION_DDOT":"0.0000000000000","FILE":"3423346","LAUNCH_DATE":"2020-08-18"},{"PERIOD":"95.593","ELEMENT_SET_NO":"999","RA_OF_ASC_NODE":"161.1501","GP_ID":"202389829","TLE_LINE1":"1 46126U 20057K   22120.84956990 -.00002864  00000-0 -17346-3 0  9996","OBJECT_ID":"2020-057K","NORAD_CAT_ID":"46126","APOAPSIS":"548.470","SEMIMAJOR_AXIS":"6925.384","MEAN_MOTION_DOT":"-0.00002864","PERIAPSIS":"546.029","MEAN_MOTION":"15.06388297","DECAY_DATE":null,"TIME_SYSTEM":"UTC","RCS_SIZE":"LARGE","BSTAR":"-0.00017346000000","TLE_LINE2":"2 46126  53.0536 161.1501 0001762  65.7384 294.3789 15.06388297 93729","EPHEMERIS_TYPE":"0","CENTER_NAME":"EARTH","INCLINATION":"53.0536","FILE":"3423346","LAUNCH_DATE":"2020-08-18","MEAN_MOTION_DDOT":"0.0000000000000","SITE":"AFETR","REF_FRAME":"TEME","ECCENTRICITY":"0.00017620","OBJECT_NAME":"STARLINK-1619","REV_AT_EPOCH":"9372","EPOCH":"2022-04-30T20:23:22.839360","CLASSIFICATION_TYPE":"U","ARG_OF_PERICENTER":"65.7384","COUNTRY_CODE":"US","OBJECT_TYPE":"PAYLOAD","MEAN_ANOMALY":"294.3789","MEAN_ELEMENT_THEORY":"SGP4"},{"APOAPSIS":"548.811","NORAD_CAT_ID":"46127","OBJECT_ID":"2020-057L","TLE_LINE1":"1 46127U 20057L   22120.77401462 -.00001750  00000-0 -98602-4 0  9996","GP_ID":"202389579","RA_OF_ASC_NODE":"141.4824","ELEMENT_SET_NO":"999","PERIOD":"95.593","TLE_LINE2":"2 46127  53.0537 141.4824 0002269  40.1148 320.0008 15.06391397 93982","BSTAR":"-0.00009860200000","RCS_SIZE":"LARGE","DECAY_DATE":null,"TIME_SYSTEM":"UTC","MEAN_MOTION":"15.06391397","PERIAPSIS":"545.669","SEMIMAJOR_AXIS":"6925.375","MEAN_MOTION_DOT":"-0.00001750","ECCENTRICITY":"0.00022690","OBJECT_NAME":"STARLINK-1621","REF_FRAME":"TEME","SITE":"AFETR","MEAN_MOTION_DDOT":"0.0000000000000","FILE":"3423346","LAUNCH_DATE":"2020-08-18","INCLINATION":"53.0537","EPHEMERIS_TYPE":"0","CENTER_NAME":"EARTH","MEAN_ANOMALY":"320.0008","OBJECT_TYPE":"PAYLOAD","MEAN_ELEMENT_THEORY":"SGP4","COUNTRY_CODE":"US","ARG_OF_PERICENTER":"40.1148","CLASSIFICATION_TYPE":"U","EPOCH":"2022-04-30T18:34:34.863168","REV_AT_EPOCH":"9398"},{"APOAPSIS":"548.265","NORAD_CAT_ID":"46128","OBJECT_ID":"2020-057M","TLE_LINE1":"1 46128U 20057M   22120.73529673  .00000186  00000-0  31416-4 0  9998","RA_OF_ASC_NODE":"121.6622","GP_ID":"202388327","PERIOD":"95.592","ELEMENT_SET_NO":"999","RCS_SIZE":"LARGE","TLE_LINE2":"2 46128  53.0528 121.6622 0001505  55.8864 304.2267 15.06397064 94269","BSTAR":"0.00003141600000","MEAN_MOTION":"15.06397064","DECAY_DATE":null,"TIME_SYSTEM":"UTC","PERIAPSIS":"546.180","SEMIMAJOR_AXIS":"6925.358","MEAN_MOTION_DOT":"0.00000186","ECCENTRICITY":"0.00015050","OBJECT_NAME":"STARLINK-1622","REF_FRAME":"TEME","SITE":"AFETR","MEAN_MOTION_DDOT":"0.0000000000000","FILE":"3423346","LAUNCH_DATE":"2020-08-18","EPHEMERIS_TYPE":"0","CENTER_NAME":"EARTH","INCLINATION":"53.0528","COUNTRY_CODE":"US","MEAN_ANOMALY":"304.2267","OBJECT_TYPE":"PAYLOAD","MEAN_ELEMENT_THEORY":"SGP4","ARG_OF_PERICENTER":"55.8864","CLASSIFICATION_TYPE":"U","EPOCH":"2022-04-30T17:38:49.637472","REV_AT_EPOCH":"9426"},{"APOAPSIS":"548.434","NORAD_CAT_ID":"46129","OBJECT_ID":"2020-057N","TLE_LINE1":"1 46129U 20057N   22120.70950813 -.00000038  00000-0  16382-4 0  9992","GP_ID":"202389078","RA_OF_ASC_NODE":"121.7902","PERIOD":"95.593","ELEMENT_SET_NO":"999","BSTAR":"0.00001638200000","TLE_LINE2":"2 46129  53.0549 121.7902 0001705  47.6030 312.5103 15.06387048 94263","RCS_SIZE":"LARGE","DECAY_DATE":null,"TIME_SYSTEM":"UTC","MEAN_MOTION":"15.06387048","PERIAPSIS":"546.072","SEMIMAJOR_AXIS":"6925.388","MEAN_MOTION_DOT":"-0.00000038","ECCENTRICITY":"0.00017050","OBJECT_NAME":"STARLINK-1623","REF_FRAME":"TEME","SITE":"AFETR","MEAN_MOTION_DDOT":"0.0000000000000","FILE":"3423346","LAUNCH_DATE":"2020-08-18","INCLINATION":"53.0549","CENTER_NAME":"EARTH","EPHEMERIS_TYPE":"0","OBJECT_TYPE":"PAYLOAD","MEAN_ELEMENT_THEORY":"SGP4","MEAN_ANOMALY":"312.5103","COUNTRY_CODE":"US","ARG_OF_PERICENTER":"47.6030","CLASSIFICATION_TYPE":"U","EPOCH":"2022-04-30T17:01:41.502432","REV_AT_EPOCH":"9426"},{"MEAN_ELEMENT_THEORY":"SGP4","OBJECT_TYPE":"PAYLOAD","MEAN_ANOMALY":"311.1516","COUNTRY_CODE":"US","CLASSIFICATION_TYPE":"U","ARG_OF_PERICENTER":"48.9656","REV_AT_EPOCH":"9488","EPOCH":"2022-04-30T11:27:17.365248","OBJECT_NAME":"STARLINK-1624","ECCENTRICITY":"0.00021250","SITE":"AFETR","REF_FRAME":"TEME","LAUNCH_DATE":"2020-08-18","FILE":"3422904","MEAN_MOTION_DDOT":"0.0000000000000","INCLINATION":"53.0547","CENTER_NAME":"EARTH","EPHEMERIS_TYPE":"0","TLE_LINE2":"2 46130  53.0547 122.8116 0002125  48.9656 311.1516 15.06391879 94885","BSTAR":"-0.00004805300000","RCS_SIZE":"LARGE","PERIAPSIS":"545.767","TIME_SYSTEM":"UTC","DECAY_DATE":null,"MEAN_MOTION":"15.06391879","MEAN_MOTION_DOT":"-0.00000997","SEMIMAJOR_AXIS":"6925.373","NORAD_CAT_ID":"46130","APOAPSIS":"548.710","OBJECT_ID":"2020-057P","TLE_LINE1":"1 46130U 20057P   22120.47728432 -.00000997  00000-0 -48053-4 0  9993","ELEMENT_SET_NO":"999","PERIOD":"95.593","GP_ID":"202358723","RA_OF_ASC_NODE":"122.8116"},{"OBJECT_ID":"2020-057Q","NORAD_CAT_ID":"46131","APOAPSIS":"548.419","ELEMENT_SET_NO":"999","PERIOD":"95.593","GP_ID":"202390080","RA_OF_ASC_NODE":"141.5741","TLE_LINE1":"1 46131U 20057Q   22120.75557295  .00000000  00000-0  18891-4 0  9992","BSTAR":"0.00001889100000","TLE_LINE2":"2 46131  53.0528 141.5741 0001715  48.6147 311.4990 15.06394267 95247","RCS_SIZE":"LARGE","SEMIMAJOR_AXIS":"6925.366","MEAN_MOTION_DOT":"0.00000000","PERIAPSIS":"546.043","TIME_SYSTEM":"UTC","DECAY_DATE":null,"MEAN_MOTION":"15.06394267","SITE":"AFETR","REF_FRAME":"TEME","ECCENTRICITY":"0.00017150","OBJECT_NAME":"STARLINK-1625","INCLINATION":"53.0528","CENTER_NAME":"EARTH","EPHEMERIS_TYPE":"0","FILE":"3423346","LAUNCH_DATE":"2020-08-18","MEAN_MOTION_DDOT":"0.0000000000000","CLASSIFICATION_TYPE":"U","ARG_OF_PERICENTER":"48.6147","MEAN_ELEMENT_THEORY":"SGP4","OBJECT_TYPE":"PAYLOAD","MEAN_ANOMALY":"311.4990","COUNTRY_CODE":"US","REV_AT_EPOCH":"9524","EPOCH":"2022-04-30T18:08:01.502880"},{"ARG_OF_PERICENTER":"42.1750","CLASSIFICATION_TYPE":"U","COUNTRY_CODE":"US","OBJECT_TYPE":"PAYLOAD","MEAN_ANOMALY":"317.9395","MEAN_ELEMENT_THEORY":"SGP4","REV_AT_EPOCH":"9491","EPOCH":"2022-04-30T09:30:31.604832","SITE":"AFETR","REF_FRAME":"TEME","ECCENTRICITY":"0.00020340","OBJECT_NAME":"STARLINK-1630","CENTER_NAME":"EARTH","EPHEMERIS_TYPE":"0","INCLINATION":"53.0535","LAUNCH_DATE":"2020-08-18","FILE":"3422880","MEAN_MOTION_DDOT":"0.0000000000000","RCS_SIZE":"LARGE","BSTAR":"-0.00019113000000","TLE_LINE2":"2 46132  53.0535 163.1920 0002034  42.1750 317.9395 15.06389266 94915","MEAN_MOTION_DOT":"-0.00003127","SEMIMAJOR_AXIS":"6925.381","PERIAPSIS":"545.838","MEAN_MOTION":"15.06389266","DECAY_DATE":null,"TIME_SYSTEM":"UTC","OBJECT_ID":"2020-057R","NORAD_CAT_ID":"46132","APOAPSIS":"548.655","ELEMENT_SET_NO":"999","PERIOD":"95.593","RA_OF_ASC_NODE":"163.1920","GP_ID":"202353710","TLE_LINE1":"1 46132U 20057R   22120.39619913 -.00003127  00000-0 -19113-3 0  9991"},{"OBJECT_TYPE":"PAYLOAD","MEAN_ELEMENT_THEORY":"SGP4","MEAN_ANOMALY":"313.4340","COUNTRY_CODE":"US","ARG_OF_PERICENTER":"46.6863","CLASSIFICATION_TYPE":"U","REV_AT_EPOCH":"9551","EPOCH":"2022-04-30T17:28:12.659520","OBJECT_NAME":"STARLINK-1637","ECCENTRICITY":"0.00025720","SITE":"AFETR","REF_FRAME":"TEME","FILE":"3423346","LAUNCH_DATE":"2020-08-18","MEAN_MOTION_DDOT":"0.0000000000000","INCLINATION":"53.0533","EPHEMERIS_TYPE":"0","CENTER_NAME":"EARTH","TLE_LINE2":"2 46133  53.0533 121.6818 0002572  46.6863 313.4340 15.06434716 95519","BSTAR":"0.00067050000000","RCS_SIZE":"LARGE","PERIAPSIS":"545.326","TIME_SYSTEM":"UTC","DECAY_DATE":null,"MEAN_MOTION":"15.06434716","MEAN_MOTION_DOT":"0.00009729","SEMIMAJOR_AXIS":"6925.242","NORAD_CAT_ID":"46133","APOAPSIS":"548.888","OBJECT_ID":"2020-057S","TLE_LINE1":"1 46133U 20057S   22120.72792430  .00009729  00000-0  67050-3 0  9990","ELEMENT_SET_NO":"999","PERIOD":"95.590","GP_ID":"202388578","RA_OF_ASC_NODE":"121.6818"}];
